[{"OBJECT_NAME":"LEMUR-2-ANDIS","OBJECT_ID":"2017-042P","EPOCH":"2026-03-09T13:25:33.116448","MEAN_MOTION":15.30557934,"ECCENTRICITY":0.0009101,"INCLINATION":97.3659,"RA_OF_ASC_NODE":249.795,"ARG_OF_PERICENTER":4.3248,"MEAN_ANOMALY":355.807,"EPHEMERIS_TYPE":0,"CLASSIFICATION_TYPE":"U","NORAD_CAT_ID":42838,"ELEMENT_SET_NO":999,"REV_AT_EPOCH":47319,"BSTAR":0.00079875,"MEAN_MOTION_DOT":0.00023598,"MEAN_MOTION_DDOT":0},{"OBJECT_NAME":"STARLINK-36045","OBJECT_ID":"2025-278W","EPOCH":"2026-03-09T11:05:17.959488","MEAN_MOTION":15.27586217,"ECCENTRICITY":0.00018662,"INCLINATION":43.0003,"RA_OF_ASC_NODE":115.706,"ARG_OF_PERICENTER":259.8192,"MEAN_ANOMALY":100.2449,"EPHEMERIS_TYPE":0,"CLASSIFICATION_TYPE":"U","NORAD_CAT_ID":66811,"ELEMENT_SET_NO":999,"REV_AT_EPOCH":1517,"BSTAR":0.001209413,"MEAN_MOTION_DOT":0.00033175,"MEAN_MOTION_DDOT":0}]
